H1 CPF 01  gfz 2021 07 12 00  6931 terrasarx 
H2 0702601  6201 31698    2021 07 12 00 59 42 2021 07 17 00 00 42   120 1 1  0 0 0
H9
10 0 59411  71982.000000  0    5927815.699  -3456007.387    610961.072
10 0 59411  72102.000000  0    5715208.894  -3537169.242   1504566.841
10 0 59411  72222.000000  0    5401840.902  -3551883.819   2371679.430
10 0 59411  72342.000000  0    4994362.232  -3498182.949   3197027.489
10 0 59411  72462.000000  0    4501106.781  -3375435.947   3966081.578
10 0 59411  72582.000000  0    3931917.170  -3184385.768   4665314.188
10 0 59411  72702.000000  0    3297941.947  -2927158.040   5282440.913
10 0 59411  72822.000000  0    2611409.193  -2607240.104   5806635.082
10 0 59411  72942.000000  0    1885384.711  -2229432.471   6228713.873
10 0 59411  73062.000000  0    1133518.497  -1799774.622   6541293.650
10 0 59411  73182.000000  0     369785.039  -1325446.018   6738913.046
10 0 59411  73302.000000  0    -391777.492   -814644.018   6818122.421
10 0 59411  73422.000000  0   -1137324.633   -276441.234   6777539.523
10 0 59411  73542.000000  0   -1853456.023    279375.291   6617871.930
10 0 59411  73662.000000  0   -2527455.275    842481.518   6341905.603
10 0 59411  73782.000000  0   -3147515.863   1402207.160   5954459.603
10 0 59411  73902.000000  0   -3702949.690   1947736.904   5462307.646
10 0 59411  74022.000000  0   -4184375.738   2468319.510   4874066.560
10 0 59411  74142.000000  0   -4583884.635   2953481.446   4200051.220
10 0 59411  74262.000000  0   -4895175.243   3393238.991   3452097.068
10 0 59411  74382.000000  0   -5113659.900   3778305.702   2643354.503
10 0 59411  74502.000000  0   -5236536.741   4100290.791   1788057.595
10 0 59411  74622.000000  0   -5262827.188   4351883.295    901269.687
10 0 59411  74742.000000  0   -5193375.348   4527016.148     -1389.264
10 0 59411  74862.000000  0   -5030810.626   4621005.724   -904025.403
10 0 59411  74982.000000  0   -4779474.745   4630665.339  -1790760.397
10 0 59411  75102.000000  0   -4445312.814   4554387.624  -2646020.333
10 0 59411  75222.000000  0   -4035733.065   4392193.021  -3454815.984
10 0 59411  75342.000000  0   -3559438.819   4145745.139  -4203008.411
10 0 59411  75462.000000  0   -3026238.413   3818333.329  -4877554.231
10 0 59411  75582.000000  0   -2446839.109   3414823.851  -5466726.592
10 0 59411  75702.000000  0   -1832630.002   2941582.487  -5960311.162
10 0 59411  75822.000000  0   -1195456.215   2406368.159  -6349773.851
10 0 59411  75942.000000  0    -547390.737   1818200.787  -6628396.488
10 0 59411  76062.000000  0      99491.301   1187207.876  -6791381.434
10 0 59411  76182.000000  0     733332.177    524451.185  -6835925.365
10 0 59411  76302.000000  0    1342704.176   -158263.436  -6761263.664
10 0 59411  76422.000000  0    1916811.321   -848592.358  -6568680.962
10 0 59411  76542.000000  0    2445675.687  -1533871.415  -6261490.950
10 0 59411  76662.000000  0    2920308.445  -2201342.368  -5844985.595
10 0 59411  76782.000000  0    3332862.325  -2838385.505  -5326354.717
10 0 59411  76902.000000  0    3676764.993  -3432758.267  -4714573.526
10 0 59411  77022.000000  0    3946827.110  -3972831.255  -4020256.159
10 0 59411  77142.000000  0    4139324.508  -4447817.380  -3255481.930
10 0 59411  77262.000000  0    4252054.442  -4847991.987  -2433593.654
10 0 59411  77382.000000  0    4284362.935  -5164898.224  -1568969.058
10 0 59411  77502.000000  0    4237139.959  -5391531.729   -676768.822
10 0 59411  77622.000000  0    4112783.815  -5522498.547    227333.214
10 0 59411  77742.000000  0    3915134.174  -5554142.943   1127431.923
10 0 59411  77862.000000  0    3649376.061  -5484641.104   2007679.710
10 0 59411  77982.000000  0    3321915.370  -5314056.451   2852575.038
10 0 59411  78102.000000  0    2940230.266  -5044357.840   3647242.483
10 0 59411  78222.000000  0    2512703.140  -4679398.758   4377700.554
10 0 59411  78342.000000  0    2048437.214  -4224858.768   5031111.010
10 0 59411  78462.000000  0    1557061.900  -3688148.747   5596004.801
10 0 59411  78582.000000  0    1048531.752  -3078282.447   6062481.607
10 0 59411  78702.000000  0     532923.043  -2405717.547   6422377.888
10 0 59411  78822.000000  0      20233.682  -1682171.104   6669402.665
10 0 59411  78942.000000  0    -479809.663   -920412.842   6799241.212
10 0 59411  79062.000000  0    -957934.821   -134038.077   6809626.825
10 0 59411  79182.000000  0   -1405495.157    662775.370   6700377.659
10 0 59411  79302.000000  0   -1814625.422   1455522.195   6473399.393
10 0 59411  79422.000000  0   -2178380.061   2229632.620   6132654.094
10 0 59411  79542.000000  0   -2490851.973   2970739.936   5684095.405
10 0 59411  79662.000000  0   -2747269.596   3664948.452   5135570.550
10 0 59411  79782.000000  0   -2944072.102   4299097.539   4496690.042
10 0 59411  79902.000000  0   -3078959.924   4861016.991   3778664.508
10 0 59411  80022.000000  0   -3150919.306   5339768.172   2994111.063
10 0 59411  80142.000000  0   -3160219.942   5725864.592   2156831.429
10 0 59411  80262.000000  0   -3108386.249   6011466.349   1281566.565
10 0 59411  80382.000000  0   -2998142.131   6190544.726    383732.621
10 0 59411  80502.000000  0   -2833330.660   6259012.732   -520857.899
10 0 59411  80622.000000  0   -2618811.313   6214816.982  -1416284.161
10 0 59411  80742.000000  0   -2360335.657   6057987.244  -2286808.757
10 0 59411  80862.000000  0   -2064404.023   5790640.436  -3117161.974
10 0 59411  80982.000000  0   -1738110.217   5416945.371  -3892811.851
10 0 59411  81102.000000  0   -1388977.984   4943047.638  -4600219.042
10 0 59411  81222.000000  0   -1024792.993   4376956.820  -5227068.878
10 0 59411  81342.000000  0    -653434.234   3728401.523  -5762478.929
10 0 59411  81462.000000  0    -282707.627   3008653.326  -6197179.797
10 0 59411  81582.000000  0      79814.098   2230323.425  -6523664.607
10 0 59411  81702.000000  0     426941.173   1407139.152  -6736306.551
10 0 59411  81822.000000  0     752004.695    553702.994  -6831447.038
10 0 59411  81942.000000  0    1048981.131   -314762.812  -6807451.679
10 0 59411  82062.000000  0    1312600.595  -1182682.748  -6664734.517
10 0 59411  82182.000000  0    1538437.695  -2034399.923  -6405750.271
10 0 59411  82302.000000  0    1722984.804  -2854450.851  -6034957.384
10 0 59411  82422.000000  0    1863706.678  -3627841.542  -5558751.053
10 0 59411  82542.000000  0    1959074.806  -4340322.295  -4985363.748
10 0 59411  82662.000000  0    2008581.044  -4978651.690  -4324732.314
10 0 59411  82782.000000  0    2012730.528  -5530846.965  -3588336.963
10 0 59411  82902.000000  0    1973013.300  -5986418.017  -2789011.037
10 0 59411  83022.000000  0    1891854.296  -6336578.075  -1940723.132
10 0 59411  83142.000000  0    1772542.809  -6574423.958  -1058334.068
10 0 59411  83262.000000  0    1619143.969  -6695083.530   -157335.292
10 0 59411  83382.000000  0    1436393.171  -6695822.900    746430.242
10 0 59411  83502.000000  0    1229575.517  -6576111.808   1637052.903
10 0 59411  83622.000000  0    1004393.741  -6337645.790   2498847.143
10 0 59411  83742.000000  0     766828.388  -5984320.192   3316636.825
10 0 59411  83862.000000  0     522992.320  -5522161.167   4076028.951
10 0 59411  83982.000000  0     278985.195  -4959215.285   4763670.765
10 0 59411  84102.000000  0      40750.625  -4305400.041   5367486.188
10 0 59411  84222.000000  0    -186059.946  -3572319.008   5876886.578
10 0 59411  84342.000000  0    -396213.420  -2773045.840   6282952.860
10 0 59411  84462.000000  0    -585009.618  -1921883.383   6578584.231
10 0 59411  84582.000000  0    -748381.480  -1034104.786   6758615.507
10 0 59411  84702.000000  0    -882979.289   -125677.890   6819903.265
10 0 59411  84822.000000  0    -986237.919    787022.876   6761377.792
10 0 59411  84942.000000  0   -1056425.075   1687511.359   6584060.323
10 0 59411  85062.000000  0   -1092669.981   2559486.719   6291046.186
10 0 59411  85182.000000  0   -1094972.902   3387128.425   5887454.301
10 0 59411  85302.000000  0   -1064195.185   4155385.186   5380342.877
10 0 59411  85422.000000  0   -1002029.045   4850252.278   4778592.079
10 0 59411  85542.000000  0    -910949.178   5459034.127   4092754.582
10 0 59411  85662.000000  0    -794145.327   5970584.187   3334873.529
10 0 59411  85782.000000  0    -655439.306   6375518.585   2518275.414
10 0 59411  85902.000000  0    -499186.588   6666401.039   1657333.243
10 0 59411  86022.000000  0    -330163.326   6837886.882    767208.051
10 0 59411  86142.000000  0    -153443.730   6886826.978   -136424.369
10 0 59411  86262.000000  0      25729.702   6812329.058  -1037657.833
10 0 59411  86382.000000  0     202079.891   6615772.120  -1920646.168
99
